id;oid;oldOid;nameFull;nameShort;parentId;medicalSubjectId;medicalSubjectName;inn;kpp;ogrn;regionId;regionName;organizationType;moDeptId;moDeptName;founder;deleteDate;deleteReason;createDate;modifyDate;moLevel;moAgencyKindId;moAgencyKind;profileAgencyKindId;profileAgencyKind;postIndex;cadastralNumber;latitude;longtitude;fiasVersion;aoidArea;aoidStreet;houseid;addrRegionId;addrRegionName;territoryCode;isFederalCity;areaName;prefixArea;streetName;prefixStreet;house
22481;1.2.643.5.1.13.13.12.2.48.4484;1.2.643.5.1.13.3.25.48.6;Государственное учреждение здравоохранения "Липецкий областной перинатальный центр";ГУЗ "ЛОПЦ";;2;Медицинская организация;4825053843;482501001;1074823017609;48;Липецкая область;1;2300229;Органы исполнительной власти субъектов Российской Федерации, осуществляющие функции в области здравоохранения;;;;16.10.2016;09.05.2021;III уровень;43;Центр (Лечебно-профилактические медицинские организации);72;перинатальный;398055;48:20:0029309:262;52.607114;39.515407;465;f1ed2bb3-ed0b-4547-9cdf-2d08cda909df;06b9358c-a608-43ce-bd10-2e94dc6210cd;e989ba9b-abbc-408f-845c-7287d623da72;48;Липецкая область;42;false;Липецк;г;Московская;ул;6г
22484;1.2.643.5.1.13.13.12.2.48.4486;1.2.643.5.1.13.3.25.48.8;Государственное учреждение здравоохранения "Липецкий областной Центр по профилактике и борьбе со СПИД и инфекционными заболеваниями";ГУЗ "ЛОЦПБС и ИЗ";;2;Медицинская организация;4826022414;482601001;1024840844071;48;Липецкая область;1;2300229;Органы исполнительной власти субъектов Российской Федерации, осуществляющие функции в области здравоохранения;;;;16.10.2016;10.03.2021;II уровень;43;Центр (Лечебно-профилактические медицинские организации);74;профилактики и борьбы со СПИД;398043;;52.621407;39.558472;355;f1ed2bb3-ed0b-4547-9cdf-2d08cda909df;a8ac2ad1-be39-4b40-95fa-7d6772a6bd8b;8b1f5812-dd9a-4e0c-87e9-582fe4b732a3;48;Липецкая область;42;false;Липецк;г;Гагарина;ул;135
22485;1.2.643.5.1.13.13.12.2.48.4487;1.2.643.5.1.13.3.25.48.9;Государственное учреждение здравоохранения особого типа "Центр общественного здоровья и медицинской профилактики";ГУЗОТ "ЦОЗиМП";;2;Медицинская организация;4826036600;482601001;1024840827440;48;Липецкая область;1;2300229;Органы исполнительной власти субъектов Российской Федерации, осуществляющие функции в области здравоохранения;;;;16.10.2016;20.03.2021;II уровень;93;Центр (Медицинские организации особого типа);94;общественного здоровья и медицинской профилактики;398042;48:20:000000:0000;52.605091;39.536778;408;f1ed2bb3-ed0b-4547-9cdf-2d08cda909df;feb84d4f-35f2-482e-b9e6-3dacd8758cb2;;48;Липецкая область;42;false;Липецк;г;9-й;мкр;17
22508;1.2.643.5.1.13.13.12.2.48.4488;1.2.643.5.1.13.3.25.48.10;Государственное учреждение здравоохранения "Областной врачебно-физкультурный диспансер";ГУЗ "ОВФД";;2;Медицинская организация;4825006018;482401001;1024840832114;48;Липецкая область;1;2300229;Органы исполнительной власти субъектов Российской Федерации, осуществляющие функции в области здравоохранения;;;;16.10.2016;25.02.2021;II уровень;23;Диспансер;24;врачебно-физкультурный;398059;;52.597614;39.581424;548;f1ed2bb3-ed0b-4547-9cdf-2d08cda909df;8d62f58a-81d8-4e4b-8ac5-ce5051b694b4;889f2bb2-1884-4cb9-b6cb-713ba1ff5bfb;48;Липецкая область;42;false;Липецк;г;М.И. Неделина;ул;9
22614;1.2.643.5.1.13.13.12.2.48.4491;1.2.643.5.1.13.3.25.48.13;Государственное учреждение здравоохранения "Липецкая областная психоневрологическая больница";ГУЗ "ЛОПНБ";;2;Медицинская организация;4802002585;480201001;1024800522570;48;Липецкая область;1;2300229;Органы исполнительной власти субъектов Российской Федерации, осуществляющие функции в области здравоохранения;;;;16.10.2016;17.05.2021;II уровень;4;Специализированная больница;15;психоневрологическая, в том числе детская;399083;48:02:0410106:8;52.652721;39.817147;576;ff127c5c-2336-4cbb-b1f2-439d9b8d65b4;636fd86b-ed7f-4953-9830-7d01f411bca7;1386b010-c716-4f30-bb97-e43a91b2626d;48;Липецкая область;42;false;Плеханово;с;Плеханова;ул;173а
22761;1.2.643.5.1.13.13.12.2.48.4492;1.2.643.5.1.13.3.25.48.14;Государственное учреждение здравоохранения "Елецкая городская больница № 1 им. Н.А. Семашко";ГУЗ "Елецкая горбольница № 1 им. Н.А. Семашко";;2;Медицинская организация;4821004010;482101001;1024800788693;48;Липецкая область;1;2300229;Органы исполнительной власти субъектов Российской Федерации, осуществляющие функции в области здравоохранения;;;;16.10.2016;11.03.2021;III уровень;1;Больница (в том числе детская);;;399774;;52.626688;38.483225;331;5aa1fba5-eab6-4a44-b91d-221f70ff73e1;05e854a4-3a25-4523-aedb-779213067daf;a62b8305-550f-477b-a301-13de4f0c1eec;48;Липецкая область;42;false;Елец;г;Коммунаров;ул;40
22766;1.2.643.5.1.13.13.12.2.48.4493;1.2.643.5.1.13.3.25.48.15;ГАУЗ "Липецкая городская стоматологическая поликлиника №1";ГАУЗ "Липецкая ГСП №1";;2;Медицинская организация;4824006872;482401001;1024840831256;48;Липецкая область;1;2300229;Органы исполнительной власти субъектов Российской Федерации, осуществляющие функции в области здравоохранения;;;;16.10.2016;17.05.2021;I уровень;34;Поликлиника;38;стоматологическая, в том числе детская;398046;48:20:0044401:638;52.593270;39.540299;407;f1ed2bb3-ed0b-4547-9cdf-2d08cda909df;26d5e249-3d44-4b40-8046-ea7c3e00efe1;9d662970-feb0-4436-b8f2-8e0aeefb7167;48;Липецкая область;42;false;Липецк;г;П.И.Смородина;ул;2
23121;1.2.643.5.1.13.13.12.2.48.4495;1.2.643.5.1.13.3.25.48.17;Государственное учреждение здравоохранения Липецкий областной наркологический диспансер;ГУЗ "ЛОНД";;2;Медицинская организация;4824003085;482401001;1024840855380;48;Липецкая область;1;2300229;Органы исполнительной власти субъектов Российской Федерации, осуществляющие функции в области здравоохранения;;;;16.10.2016;26.05.2021;I уровень;23;Диспансер;27;наркологический;398006;48:20:0040601:140;52.541143;39.591512;407;f1ed2bb3-ed0b-4547-9cdf-2d08cda909df;9b5a1d4b-7cbb-4e6c-baa7-1cf3b8509d4e;943ba3ec-2644-49c3-9910-82a400999ea5;48;Липецкая область;42;false;Липецк;г;Ленинградская;ул;18
23214;1.2.643.5.1.13.13.12.2.48.4498;1.2.643.5.1.13.3.25.48.20;Государственное учреждение здравоохранения «Лебедянская центральная районная больница»;ГУЗ «Лебедянская ЦРБ»;;2;Медицинская организация;4811003070;481101001;1034800060415;48;Липецкая область;1;2300229;Органы исполнительной власти субъектов Российской Федерации, осуществляющие функции в области здравоохранения;;;;16.10.2016;09.05.2021;II уровень;1;Больница (в том числе детская);;;399610;48:11:0470166:53;53.008831;39.134315;361;8391e90c-d9a9-4cf7-a45a-3551c5ebde53;c36aa259-1d68-49b4-8710-604f4e915c5a;d5570a8d-ba5d-4461-87da-ad9d0e4420ae;48;Липецкая область;42;false;Лебедянь;г;Почтовая;ул;13
25213;1.2.643.5.1.13.13.12.2.48.4503;1.2.643.5.1.13.3.25.48.25;Государственное учреждение здравоохранения "Областная стоматологическая поликлиника-Стоматологический центр";ГУЗ "Осп-Сц";;2;Медицинская организация;4825006040;482601001;1024840842938;48;Липецкая область;1;2300229;Органы исполнительной власти субъектов Российской Федерации, осуществляющие функции в области здравоохранения;;;;16.10.2016;17.05.2021;II уровень;34;Поликлиника;38;стоматологическая, в том числе детская;398043;48:20:0012901:3414;52.609898;39.562308;407;f1ed2bb3-ed0b-4547-9cdf-2d08cda909df;85fe5859-4834-4a51-bece-9fce570b5811;;48;Липецкая область;42;false;Липецк;г;Циолковского;ул;22
25214;1.2.643.5.1.13.13.12.2.48.4504;1.2.643.5.1.13.3.25.48.26;Государственное учреждение здравоохранения "Областной кожно-венерологический диспансер";ГУЗ "ОКВД";;2;Медицинская организация;4823057338;482301001;1134827003266;48;Липецкая область;1;2300229;Органы исполнительной власти субъектов Российской Федерации, осуществляющие функции в области здравоохранения;;;;16.10.2016;11.03.2021;II уровень;23;Диспансер;26;кожно-венерологический;398005;;52.577233;39.610305;521;f1ed2bb3-ed0b-4547-9cdf-2d08cda909df;f1f79f85-a5b5-4e1b-9ac6-d6356d49e082;afe71144-6177-4ce0-af07-e61c9cbf4e9b;48;Липецкая область;42;false;Липецк;г;М.Расковой;ул;18
25215;1.2.643.5.1.13.13.12.2.48.4505;1.2.643.5.1.13.3.25.48.27;Государственное учреждение здравоохранения "Лев-Толстовская районная больница";ГУЗ «Лев-Толстовская РБ»;;2;Медицинская организация;4812001100;481201001;1034800020056;48;Липецкая область;1;2300229;Органы исполнительной власти субъектов Российской Федерации, осуществляющие функции в области здравоохранения;;;;16.10.2016;11.03.2021;I уровень;1;Больница (в том числе детская);;;399870;;53.214437;39.438601;331;6305da4f-8609-4111-9484-cb62247272ee;c5401739-c44c-4c0c-bed8-7d3149ba44f5;401e7716-3954-4e61-96a0-f70c594096a2;48;Липецкая область;42;false;Лев Толстой;п;Железнодорожная;ул;33
25216;1.2.643.5.1.13.13.12.2.48.4506;1.2.643.5.1.13.3.25.48.28;ГУЗ "Центр скорой медицинской помощи и медицины катастроф Липецкой области";ГУЗ "ЦСМПИМКЛО";;2;Медицинская организация;4826085301;482601001;1124823018110;48;Липецкая область;1;2300229;Органы исполнительной власти субъектов Российской Федерации, осуществляющие функции в области здравоохранения;;;;16.10.2016;11.03.2021;II уровень;81;Медицинские организации скорой медицинской помощи и переливания крови;82;станция скорой медицинской помощи;398032;48:20:0012303:653;52.619456;39.553595;404;f1ed2bb3-ed0b-4547-9cdf-2d08cda909df;2c1f42bf-4cd6-4953-8122-324949695966;37f22893-f1fe-40d9-9974-e1c6fdce741b;48;Липецкая область;42;false;Липецк;г;Германа Титова;ул;6/4
25218;1.2.643.5.1.13.13.12.2.48.4508;1.2.643.5.1.13.3.25.48.30;Государственное учреждение здравоохранения "Липецкая городская больница № 6 им. В.В. Макущенко";ГУЗ "Липецкая городская больница № 6";;2;Медицинская организация;4823004992;482301001;1024840843565;48;Липецкая область;1;2300229;Органы исполнительной власти субъектов Российской Федерации, осуществляющие функции в области здравоохранения;;;;16.10.2016;20.03.2021;I уровень;1;Больница (в том числе детская);;;390017;48:20:0035102:13092;52.574727;39.618138;407;f1ed2bb3-ed0b-4547-9cdf-2d08cda909df;a5f5cd47-2336-43e5-b44f-5d5fdea0be8a;8f4dbfc7-5328-4206-95e8-7aec0eb36123;48;Липецкая область;42;false;Липецк;г;9-го Мая;ул;4
25222;1.2.643.5.1.13.13.12.2.48.4512;1.2.643.5.1.13.3.25.48.34;Государственное учреждение здравоохранения"Елецкая городская больница №2";ГУЗ "Елецкая городская больница №2";;2;Медицинская организация;4821011419;482101001;1024800790156;48;Липецкая область;1;2300229;Органы исполнительной власти субъектов Российской Федерации, осуществляющие функции в области здравоохранения;;;;16.10.2016;20.03.2021;II уровень;1;Больница (в том числе детская);;;399774;48:19:6030316:2;52.608055;38.497652;331;5aa1fba5-eab6-4a44-b91d-221f70ff73e1;4956e16a-906b-4ef2-b2ae-8c41cff56d6c;9a2e3888-2ff7-4e41-9cb0-f8965f07a4df;48;Липецкая область;42;false;Елец;г;Костенко;ул;7
25224;1.2.643.5.1.13.13.12.2.48.4514;1.2.643.5.1.13.3.25.48.36;Областное казенное учреждение Елецкий специализированный Дом ребенка;ОКУ "Елецкий СДР";;2;Медицинская организация;4821010849;482101001;1024800794732;48;Липецкая область;1;2300229;Органы исполнительной власти субъектов Российской Федерации, осуществляющие функции в области здравоохранения;;;;16.10.2016;05.03.2021;II уровень;41;Дом ребенка, в том числе специализированный;;;399770;48:19:6160110:38;52.625338;38.484581;331;5aa1fba5-eab6-4a44-b91d-221f70ff73e1;c8389b89-dd9f-457e-a2cb-3bd96b4f44ab;bcd92add-9e73-4dd2-a7d9-0a5a12475f66;48;Липецкая область;42;false;Елец;г;Пирогова;ул;32
25227;1.2.643.5.1.13.13.12.2.48.4517;1.2.643.5.1.13.3.25.48.39;Государственное учреждение здравоохранения Елецкий психоневрологический диспансер;ГУЗ Елецкий ПНД;;2;Медицинская организация;4821004436;482101001;1024800793324;48;Липецкая область;1;2300229;Органы исполнительной власти субъектов Российской Федерации, осуществляющие функции в области здравоохранения;;;;16.10.2016;17.05.2021;I уровень;23;Диспансер;31;психоневрологический;399777;;52.631154;38.508207;477;5aa1fba5-eab6-4a44-b91d-221f70ff73e1;6dbf9fc2-d06a-441b-9eaf-234f4354fb18;;48;Липецкая область;42;false;Елец;г;Дякина;ул;1
25230;1.2.643.5.1.13.13.12.2.48.4520;1.2.643.5.1.13.3.25.48.42;Государственное учреждение здравоохранения "Елецкая городская детская больница";ГУЗ "Елецкая ГДБ";;2;Медицинская организация;4821004891;482101001;1024800790024;48;Липецкая область;1;2300229;Органы исполнительной власти субъектов Российской Федерации, осуществляющие функции в области здравоохранения;;;;16.10.2016;11.03.2021;II уровень;1;Больница (в том числе детская);;;399774;48:19:6060201:11;52.619904;38.479910;20201201;c788ba15-69d5-4b1b-b2af-75785adc2eca;c3868f7b-f7b3-40a1-b24c-28588c3caf3c;;48;Липецкая область;42;false;Елец;г;220 Стрелковой Дивизии;ул;зд. 1В
25234;1.2.643.5.1.13.13.12.2.48.4523;1.2.643.5.1.13.3.25.48.46;Государственное учреждение здравоохранения «Измалковская районная больница»;ГУЗ «Измалковская РБ»;;2;Медицинская организация;4809001799;480901001;1034800042530;48;Липецкая область;1;2300229;Органы исполнительной власти субъектов Российской Федерации, осуществляющие функции в области здравоохранения;;;;16.10.2016;26.05.2021;I уровень;1;Больница (в том числе детская);;;;;52.694598;37.955528;431;05942a88-8df5-4e50-ae54-3782dc3745b6;b5ecdc0a-6b63-4d57-b814-4abdb879f9ba;;48;Липецкая область;42;false;Измалково;с;Лесной;пер;4
25413;1.2.643.5.1.13.13.12.2.48.4525;1.2.643.5.1.13.3.25.48.49;ГАУЗ Липецкая городская стоматологическая поликлиника №2;ГАУЗ Липецкая ГСП №2;;2;Медицинская организация;4826008811;482601001;1024840824810;48;Липецкая область;1;2300229;Органы исполнительной власти субъектов Российской Федерации, осуществляющие функции в области здравоохранения;;;;16.10.2016;17.05.2021;I уровень;34;Поликлиника;38;стоматологическая, в том числе детская;398035;48:20:0021637:448;52.607836;39.548519;407;f1ed2bb3-ed0b-4547-9cdf-2d08cda909df;57da22fd-f1e5-44c7-bbbe-6d63341eaf96;e24cd4d6-28bb-4ec2-b284-8fe1a44f08cb;48;Липецкая область;42;false;Липецк;г;Космонавтов;ул;37/5
25463;1.2.643.5.1.13.13.12.2.48.4530;1.2.643.5.1.13.3.25.48.54;Государственное учреждение здравоохранения "Хлевенская районная больница";ГУЗ «Хлевенская РБ»;;2;Медицинская организация;4817001584;481701001;1024800631591;48;Липецкая область;1;2300229;Органы исполнительной власти субъектов Российской Федерации, осуществляющие функции в области здравоохранения;;;;16.10.2016;11.03.2021;I уровень;1;Больница (в том числе детская);;;399260;;52.197885;39.090612;407;97837fb8-8000-4da7-8ab9-605fadf19b30;771127bc-3603-44f6-b3b5-03131ca9eb32;fa660dbf-d98c-4ddc-ad25-11e295e05725;48;Липецкая область;42;false;Хлевное;с;Прогресс;ул;5
25757;1.2.643.5.1.13.13.12.2.48.4532;1.2.643.5.1.13.3.25.48.56;Государственное учреждение здравоохранения "Добринская центральная районная больница";ГУЗ «Добринская ЦРБ»;;2;Медицинская организация;4804003217;480401001;1024800569090;48;Липецкая область;1;2300229;Органы исполнительной власти субъектов Российской Федерации, осуществляющие функции в области здравоохранения;;;;16.10.2016;09.05.2021;II уровень;1;Больница (в том числе детская);;;399431;;52.157504;40.493142;592;c3356243-a9f9-4b58-aa97-340e0214459e;70cbb76a-fcff-43a1-8e08-d1a3f51b1c84;57c62bf2-f62d-4ea1-abbf-36d1d5b3f57d;48;Липецкая область;42;false;Добринка;п;Воронского;ул;37
25854;1.2.643.5.1.13.13.12.2.48.4533;1.2.643.5.1.13.3.25.48.57;Государственное учреждение здравоохранения "Елецкая районная больница";ГУЗ «Елецкая РБ»;;2;Медицинская организация;4807001835;480701001;1024800606346;48;Липецкая область;1;2300229;Органы исполнительной власти субъектов Российской Федерации, осуществляющие функции в области здравоохранения;;;;16.10.2016;17.05.2021;I уровень;1;Больница (в том числе детская);;;399742;;52.602077;38.442621;409;f15e9d8c-571a-4178-9522-eec3107d6e51;3c9c31ca-3f13-408e-8464-34cd44296bc4;;48;Липецкая область;42;false;Газопровод;п;Зеленая;ул;23 "А"
25937;1.2.643.5.1.13.13.12.2.48.4536;1.2.643.5.1.13.3.25.48.62;Государственное учреждение здравоохранения Липецкая городская детская стоматологическая поликлиника;ГУЗ Липецкая ГДСП;;2;Медицинская организация;4826008755;482601001;1024840838846;48;Липецкая область;1;2300229;Органы исполнительной власти субъектов Российской Федерации, осуществляющие функции в области здравоохранения;;;;16.10.2016;30.04.2021;I уровень;34;Поликлиника;38;стоматологическая, в том числе детская;398001;;52.603855;39.580292;478;f1ed2bb3-ed0b-4547-9cdf-2d08cda909df;4cfe57e9-cb41-4ab9-ba0b-68cfd7c90915;1a56c18c-c799-4d70-95bd-3ba213b02db2;48;Липецкая область;42;false;Липецк;г;Советская;ул;63
25979;1.2.643.5.1.13.13.12.2.48.4538;1.2.643.5.1.13.3.25.48.64;Государственное учреждение здравоохранения "Липецкая городская поликлиника №2";ГУЗ "Липецкая городская поликлиника №2";;2;Медицинская организация;4824010276;482401001;1024840845435;48;Липецкая область;1;2300229;Органы исполнительной власти субъектов Российской Федерации, осуществляющие функции в области здравоохранения;;;;16.10.2016;09.05.2021;I уровень;34;Поликлиника;;;398046;48:20:0044506:683;52.589556;39.536661;475;f1ed2bb3-ed0b-4547-9cdf-2d08cda909df;26d5e249-3d44-4b40-8046-ea7c3e00efe1;ed1ca44b-324b-426c-950b-26c6875e3d1e;48;Липецкая область;42;false;Липецк;г;П.И.Смородина;ул;13
26035;1.2.643.5.1.13.13.12.2.48.4539;1.2.643.5.1.13.3.25.48.65;Государственное учреждение здравоохранения "Липецкая городская больница № 3 "Свободный Сокол";ГУЗ "Липецкая городская больница № 3 " Свободный Сокол";;2;Медицинская организация;4825005230;482501001;1024840835436;48;Липецкая область;1;2300229;Органы исполнительной власти субъектов Российской Федерации, осуществляющие функции в области здравоохранения;;;;16.10.2016;11.03.2021;III уровень;1;Больница (в том числе детская);;;398007;;52.639713;39.659120;465;f1ed2bb3-ed0b-4547-9cdf-2d08cda909df;f5889bae-238e-46cc-ac5e-3fe0accd7c35;8f5d57ab-e0eb-4b18-8d49-4343b5a24f56;48;Липецкая область;42;false;Липецк;г;Ушинского;ул;10
26096;1.2.643.5.1.13.13.12.2.48.4540;1.2.643.5.1.13.3.25.48.66;Государственное учреждение здравоохранения" Липецкая городская детская больница";ГУЗ ЛГДБ;;2;Медицинская организация;4825007741;482501001;1024840843994;48;Липецкая область;1;2300229;Органы исполнительной власти субъектов Российской Федерации, осуществляющие функции в области здравоохранения;;;;16.10.2016;17.05.2021;II уровень;1;Больница (в том числе детская);;;;;52.616913;39.615057;461;f1ed2bb3-ed0b-4547-9cdf-2d08cda909df;9cf1b2bf-8197-4691-ac35-88cf43f2e28b;0c42bb28-d844-4af4-91b5-ce1d5d6f22b2;48;Липецкая область;42;false;Липецк;г;Ленина;ул;40
26146;1.2.643.5.1.13.13.12.2.48.4541;1.2.643.5.1.13.3.25.48.67;Областное казенное учреждение "Усманский противотуберкулезный детский санаторий";ОКУ УПДС;;2;Медицинская организация;4816003395;481601001;1024800730118;48;Липецкая область;1;2300229;Органы исполнительной власти субъектов Российской Федерации, осуществляющие функции в области здравоохранения;;;;16.10.2016;09.05.2021;I уровень;85;Санаторно-курортные организации;89;санаторий;399370;48:16:470387:13;52.031286;39.728200;467;688b5e23-2c58-420d-91f9-afa6765ad498;463a403e-0377-45e4-b5ec-a0d7a0d518ac;41b48b05-1afd-4384-bdf6-021ac5d23c48;48;Липецкая область;42;false;Усмань;г;Ф.Энгельса;ул;8
26172;1.2.643.5.1.13.13.12.2.48.4542;1.2.643.5.1.13.3.25.48.68;Государственное учреждение здравоохранения "Липецкая городская больница № 4 "Липецк-Мед";ГУЗ "Липецкая ГБ № 4 "Липецк-Мед";;2;Медицинская организация;4824032706;482401001;1054800198705;48;Липецкая область;1;2300229;Органы исполнительной власти субъектов Российской Федерации, осуществляющие функции в области здравоохранения;;;;16.10.2016;09.05.2021;III уровень;1;Больница (в том числе детская);;;398006;;52.537643;39.582062;407;f1ed2bb3-ed0b-4547-9cdf-2d08cda909df;90b07486-dd33-4957-b94d-39d086fd528a;;48;Липецкая область;42;false;Липецк;г;Коммунистическая;ул;24
26493;1.2.643.5.1.13.13.12.2.48.4546;1.2.643.5.1.13.3.25.48.72;Областное казенное учреждение Липецкий областной противотуберкулезный санаторий "Лесная сказка";ОКУ ЛОПС "Лесная сказка";;2;Медицинская организация;4824005237;482401001;1024840854708;48;Липецкая область;1;2300229;Органы исполнительной власти субъектов Российской Федерации, осуществляющие функции в области здравоохранения;;;;16.10.2016;17.05.2021;II уровень;85;Санаторно-курортные организации;89;санаторий;398006;;52.486101;39.570118;465;f1ed2bb3-ed0b-4547-9cdf-2d08cda909df;4ebfb0f9-3566-4d55-8415-5477e56a4ffd;;48;Липецкая область;42;false;Липецк;г;Туберкулезный санаторий Лесная Сказка;п;-
26619;1.2.643.5.1.13.13.12.2.48.4547;1.2.643.5.1.13.3.25.48.73;Государственное учреждение здравоохранения "Становлянская районная больница";ГУЗ "Становлянская РБ";;2;Медицинская организация;4814000818;481401001;1024800608128;48;Липецкая область;1;2300229;Органы исполнительной власти субъектов Российской Федерации, осуществляющие функции в области здравоохранения;;;;16.10.2016;17.05.2021;I уровень;1;Больница (в том числе детская);;;399710;;52.760370;38.364674;407;a973f516-ff64-424a-adc6-54e1d787a7ff;6f8c8b6c-148c-4381-993d-31f23572f662;2331b69b-d762-4743-a15a-a6f40bcff534;48;Липецкая область;42;false;Становое;с;Ленина;ул;12
26663;1.2.643.5.1.13.13.12.2.48.4548;1.2.643.5.1.13.3.25.48.74;Государственное санаторно-курортное учреждение Липецкий областной детский санаторий "Мечта";ГСКУ ЛОДС "Мечта";;2;Медицинская организация;4825008209;480501001;1024840844764;48;Липецкая область;1;2300229;Органы исполнительной власти субъектов Российской Федерации, осуществляющие функции в области здравоохранения;;;;16.10.2016;25.02.2021;II уровень;85;Санаторно-курортные организации;90;санатории для детей, в том числе для детей с родителями;399171;;52.718383;39.787022;592;60ed05d6-3d69-4344-9ae9-a1288d4e6ee1;;;48;Липецкая область;42;false;Капитанщино;с;нет;;нет
26850;1.2.643.5.1.13.13.12.2.48.4551;1.2.643.5.1.13.3.25.48.77;Государственное учреждение здравоохранения "Грязинская центральная районная больница";ГУЗ «Грязинская ЦРБ»;;2;Медицинская организация;4802003719;480201001;1024800522933;48;Липецкая область;1;2300229;Органы исполнительной власти субъектов Российской Федерации, осуществляющие функции в области здравоохранения;;;;16.10.2016;11.03.2021;II уровень;1;Больница (в том числе детская);;;399056;;52.493752;39.920700;429;84f162f6-f84c-417f-83f3-21343da2a9f6;62603368-5ef6-4e32-87d3-acace882d795;489e0593-c5d4-45bb-8945-95e108a31f62;48;Липецкая область;42;false;Грязи;г;Социалистическая;ул;5
27024;1.2.643.5.1.13.13.12.2.48.4552;1.2.643.5.1.13.3.25.48.78;Государственное учреждение здравоохранения «Добровская районная больница»;ГУЗ «Добровская РБ»;;2;Медицинская организация;4805001597;480501001;1024800768420;48;Липецкая область;1;2300229;Органы исполнительной власти субъектов Российской Федерации, осуществляющие функции в области здравоохранения;;;;16.10.2016;30.03.2021;I уровень;1;Больница (в том числе детская);;;399140;;52.858917;39.826521;433;8db54d60-3c61-4ca8-ae8e-6cef96929e2c;929ce8bc-7742-4813-8bcc-009b7ed19b65;054b9c95-b596-48f3-a211-cb625fcb7190;48;Липецкая область;42;false;Доброе;с;Интернациональная;ул;6
27029;1.2.643.5.1.13.13.12.2.48.4553;1.2.643.5.1.13.3.25.48.79;Государственное учреждение здравоохранения "Липецкое областное бюро судебно-медицинской экспертизы";ГУЗ "Липецкое областное БСМЭ";;2;Медицинская организация;4823007866;482301001;1024840836536;48;Липецкая область;1;2300229;Органы исполнительной власти субъектов Российской Федерации, осуществляющие функции в области здравоохранения;;;;16.10.2016;09.05.2021;II уровень;101;Бюро;105;судебно-медицинской экспертизы;398017;;52.572379;39.609811;432;f1ed2bb3-ed0b-4547-9cdf-2d08cda909df;1511dbcd-ff94-417c-9067-4216ca106f44;995f8f09-8fa9-4b99-a4d6-1707b91a0c72;48;Липецкая область;42;false;Липецк;г;И.Г. Гришина;ул;17
27036;1.2.643.5.1.13.13.12.2.48.4554;1.2.643.5.1.13.3.25.48.80;Государственное учреждение здравоохранения «Чаплыгинская районная больница»;ГУЗ «Чаплыгинская РБ»;;2;Медицинская организация;4818001770;481801001;1024800770851;48;Липецкая область;1;2300229;Органы исполнительной власти субъектов Российской Федерации, осуществляющие функции в области здравоохранения;;;;16.10.2016;30.04.2021;I уровень;1;Больница (в том числе детская);;;399900;48:18:0550964:62;53.243163;39.966811;408;af76a78b-cf2a-45fc-9018-c286784111ce;544ac0cc-71ec-40c3-8b92-858947a2bcfc;b6d17b9a-f2d8-46c5-8e83-849c64af5525;48;Липецкая область;42;false;Чаплыгин;г;Крупской;ул;52
27038;1.2.643.5.1.13.13.12.2.48.4555;1.2.643.5.1.13.3.25.48.81;Государственное учреждение здравоохранения "Липецкая областная станция переливания крови";ГУЗ "Липецкая областная станция переливания крови", ГУЗ "ЛОСПК";;2;Медицинская организация;4826005850;482601001;1024840838868;48;Липецкая область;1;2300229;Органы исполнительной власти субъектов Российской Федерации, осуществляющие функции в области здравоохранения;;;;16.10.2016;20.03.2021;I уровень;81;Медицинские организации скорой медицинской помощи и переливания крови;83;станция переливания крови;398043;48:20:013102:00;52.615344;39.564141;461;f1ed2bb3-ed0b-4547-9cdf-2d08cda909df;57da22fd-f1e5-44c7-bbbe-6d63341eaf96;f3a8de2f-97c5-4e82-852f-91a47c8954a0;48;Липецкая область;42;false;Липецк;г;Космонавтов;ул;11А
27040;1.2.643.5.1.13.13.12.2.48.4556;1.2.643.5.1.13.3.25.48.82;Государственное учреждение здравоохранения «Краснинская районная больница»;ГУЗ «Краснинская РБ»;;2;Медицинская организация;4810000983;481001001;1024800673204;48;Липецкая область;1;2300229;Органы исполнительной власти субъектов Российской Федерации, осуществляющие функции в области здравоохранения;;;;16.10.2016;20.03.2021;I уровень;1;Больница (в том числе детская);;;399670;;52.867800;38.797321;429;16c0cfb5-d670-4c5e-8c06-09e72b30b972;1181ed46-f7ad-4940-80c6-a1cc0e242c93;eb4b14e4-4ffb-4e94-869f-433d58ecab45;48;Липецкая область;42;false;Красное;с;9 Мая;ул;1
27070;1.2.643.5.1.13.13.12.2.48.4557;1.2.643.5.1.13.3.25.48.83;Государственное учреждение здравоохранения "Липецкая городская поликлиника №7";ГУЗ "Липецкая горполиклиника №7";;2;Медицинская организация;4824051226;482401001;1104823007145;48;Липецкая область;1;2300229;Органы исполнительной власти субъектов Российской Федерации, осуществляющие функции в области здравоохранения;;;;16.10.2016;09.05.2021;I уровень;34;Поликлиника;;;398036;48:20:0043601:18174;52.578687;39.522892;408;f1ed2bb3-ed0b-4547-9cdf-2d08cda909df;0573f0dd-0a2e-40ca-8fda-d3732ef2245e;6c238bec-27a3-4afc-9831-79278c6552dc;48;Липецкая область;42;false;Липецк;г;Им Генерала Меркулова;ул;34
27268;1.2.643.5.1.13.13.12.2.48.4560;1.2.643.5.1.13.3.25.48.86;Государственное учреждение здравоохранения «Липецкая областная клиническая инфекционная больница»;ГУЗ "ЛОКИБ";;2;Медицинская организация;4826008956;482601001;1024840829980;48;Липецкая область;1;2300229;Органы исполнительной власти субъектов Российской Федерации, осуществляющие функции в области здравоохранения;;;;16.10.2016;25.02.2021;II уровень;4;Специализированная больница;7;инфекционная, в том числе детская;398035;48:20:0012901:19;52.610521;39.553684;331;f1ed2bb3-ed0b-4547-9cdf-2d08cda909df;57da22fd-f1e5-44c7-bbbe-6d63341eaf96;47072bb1-453e-4f72-bdb2-4b045bb78be8;48;Липецкая область;42;false;Липецк;г;Космонавтов;ул;37А
27300;1.2.643.5.1.13.13.12.2.48.4562;1.2.643.5.1.13.3.25.48.88;Государственное учреждение здравоохранения "Липецкий областной клинический центр";ГУЗ "ЛОКЦ";;2;Медицинская организация;4825031751;482501001;1024840839540;48;Липецкая область;1;2300229;Органы исполнительной власти субъектов Российской Федерации, осуществляющие функции в области здравоохранения;;;;16.10.2016;11.03.2021;III уровень;1;Больница (в том числе детская);;;398020;48:20:0020108:940;52.616208;39.611635;461;f1ed2bb3-ed0b-4547-9cdf-2d08cda909df;9cf1b2bf-8197-4691-ac35-88cf43f2e28b;9435c8fd-e6f0-4ba8-b925-b0cfde141e35;48;Липецкая область;42;false;Липецк;г;Ленина;ул;35
27342;1.2.643.5.1.13.13.12.2.48.4563;1.2.643.5.1.13.3.25.48.89;Государственное учреждение здравоохранения Липецкий областной противотуберкулезный диспансер;ГУЗ ЛОПТД;;2;Медицинская организация;4826010458;482601001;1024800835102;48;Липецкая область;1;2300229;Органы исполнительной власти субъектов Российской Федерации, осуществляющие функции в области здравоохранения;;;;16.10.2016;11.03.2021;III уровень;23;Диспансер;30;противотуберкулезный;398035;48:20:0012901:3438;52.609334;39.554259;465;f1ed2bb3-ed0b-4547-9cdf-2d08cda909df;57da22fd-f1e5-44c7-bbbe-6d63341eaf96;6c00ae2f-9935-43a5-b2b5-cda228e3bc27;48;Липецкая область;42;false;Липецк;г;Космонавтов;ул;35/1
27382;1.2.643.5.1.13.13.12.2.48.4564;1.2.643.5.1.13.3.25.48.90;Государственное учреждение здравоохранения "Усманская центральная районная больница";ГУЗ «Усманская ЦРБ»;;2;Медицинская организация;4816003412;481601001;1024800732010;48;Липецкая область;1;2300229;Органы исполнительной власти субъектов Российской Федерации, осуществляющие функции в области здравоохранения;;;;16.10.2016;17.05.2021;II уровень;1;Больница (в том числе детская);;;399373;;52.060006;39.741675;429;688b5e23-2c58-420d-91f9-afa6765ad498;c40ac798-fc52-4db9-9f47-14052af3b8ed;;48;Липецкая область;42;false;Усмань;г;К.Маркса;ул;118
6779767;1.2.643.5.1.13.13.12.2.48.4567;1.2.643.5.1.13.3.25.48.94;Государственное автономное учреждение здравоохранения "Елецкая стоматологическая поликлиника";ГАУЗ "Елецкая СП";;2;Медицинская организация;4821004193;482101001;1024800790497;48;Липецкая область;1;2300229;Органы исполнительной власти субъектов Российской Федерации, осуществляющие функции в области здравоохранения;;;;16.10.2016;11.03.2021;I уровень;34;Поликлиника;38;стоматологическая, в том числе детская;399784;;52.611046;38.475904;335;5aa1fba5-eab6-4a44-b91d-221f70ff73e1;6b8e04ee-aafa-4c49-98db-5648b8938fe4;3f05ef47-7b47-4841-882a-34678fad9e6f;48;Липецкая область;42;false;Елец;г;Радиотехническая;ул;6
6786913;1.2.643.5.1.13.13.12.2.48.4510;1.2.643.5.1.13.3.25.48.32;Государственное учреждение здравоохранения "Липецкая областная клиническая больница";ГУЗ "ЛОКБ";;2;Медицинская организация;4825005110;482501001;1024840850055;48;Липецкая область;1;2300229;Органы исполнительной власти субъектов Российской Федерации, осуществляющие функции в области здравоохранения;;;;16.10.2016;01.05.2021;III уровень;1;Больница (в том числе детская);;;398055;;52.604883;39.517078;461;f1ed2bb3-ed0b-4547-9cdf-2d08cda909df;06b9358c-a608-43ce-bd10-2e94dc6210cd;a71f5d29-7016-4da4-8a49-4219a76ec577;48;Липецкая область;42;false;Липецк;г;Московская;ул;6а
6786942;1.2.643.5.1.13.13.12.2.48.4490;1.2.643.5.1.13.3.25.48.12;Государственное учреждение здравоохранения "Липецкая городская поликлиника №5";ГУЗ "Липецкая ГП №5";;2;Медицинская организация;4824015130;482401001;1024840849483;48;Липецкая область;1;2300229;Органы исполнительной власти субъектов Российской Федерации, осуществляющие функции в области здравоохранения;;;;16.10.2016;18.05.2021;I уровень;34;Поликлиника;;;398024;48:20:0:3405;52.593537;39.563894;407;f1ed2bb3-ed0b-4547-9cdf-2d08cda909df;0d6fd95e-cca8-458e-b023-5150ce5cf9cf;;48;Липецкая область;42;false;Липецк;г;Победы;пр-кт;61
6786954;1.2.643.5.1.13.13.12.2.48.4569;1.2.643.5.1.13.3.25.48.97;Государственное учреждение здравоохранения "Елецкий врачебно-физкультурный диспансер";ГУЗ "Елецкий ВФД";;2;Медицинская организация;4821011842;482101001;1024800791795;48;Липецкая область;1;2300229;Органы исполнительной власти субъектов Российской Федерации, осуществляющие функции в области здравоохранения;;;;16.10.2016;18.05.2021;II уровень;23;Диспансер;24;врачебно-физкультурный;399770;48:19:6030315:17;52.608536;38.495271;487;5aa1fba5-eab6-4a44-b91d-221f70ff73e1;4956e16a-906b-4ef2-b2ae-8c41cff56d6c;03066ab2-34ab-499c-a25a-f5d96db1b2ea;48;Липецкая область;42;false;Елец;г;Костенко;ул;9
6787299;1.2.643.5.1.13.13.12.2.48.4502;1.2.643.5.1.13.3.25.48.24;Государственное учреждение здравоохранения "Липецкий областной онкологический диспансер";ГУЗ "ЛООД";;2;Медицинская организация;4823006453;482301001;1024800834277;48;Липецкая область;1;2300229;Органы исполнительной власти субъектов Российской Федерации, осуществляющие функции в области здравоохранения;;;;16.10.2016;18.05.2021;III уровень;23;Диспансер;28;онкологический;398005;;52.581879;39.625720;407;f1ed2bb3-ed0b-4547-9cdf-2d08cda909df;598d9818-3719-4e76-b069-65d680f29a39;d71f8ded-91f2-4161-a996-b96488911c2c;48;Липецкая область;42;false;Липецк;г;Адмирала Макарова;ул;1е
6787468;1.2.643.5.1.13.13.12.2.48.4497;1.2.643.5.1.13.3.25.48.19;Государственное учреждение здравоохранения "Липецкая городская поликлиника №4";ГУЗ "Липецкая ГП №4";;2;Медицинская организация;4826009773;482601001;1024840851518;48;Липецкая область;1;2300229;Органы исполнительной власти субъектов Российской Федерации, осуществляющие функции в области здравоохранения;;;;16.10.2016;30.03.2021;I уровень;34;Поликлиника;;;398043;;52.621648;39.557583;540;f1ed2bb3-ed0b-4547-9cdf-2d08cda909df;a8ac2ad1-be39-4b40-95fa-7d6772a6bd8b;29712bd6-cc21-4c61-9927-1a61f7a64665;48;Липецкая область;42;false;Липецк;г;Гагарина;ул;139
6787471;1.2.643.5.1.13.13.12.2.48.4549;1.2.643.5.1.13.3.25.48.75;Государственное учреждение здравоохранения "Липецкая городская больница скорой медицинской помощи № 1";ГУЗ "Липецкая ГБ СМП № 1";;2;Медицинская организация;4826050517;482601001;1064823047244;48;Липецкая область;1;2300229;Органы исполнительной власти субъектов Российской Федерации, осуществляющие функции в области здравоохранения;;;;16.10.2016;18.05.2021;III уровень;2;Больница скорой медицинской помощи;;;398035;;52.612260;39.554116;407;f1ed2bb3-ed0b-4547-9cdf-2d08cda909df;57da22fd-f1e5-44c7-bbbe-6d63341eaf96;b7ccb682-6059-43f6-90cb-246ed5b7586d;48;Липецкая область;42;false;Липецк;г;Космонавтов;ул;39
6787472;1.2.643.5.1.13.13.12.2.48.4522;1.2.643.5.1.13.3.25.48.45;Государственное учреждение здравоохранения "Данковская центральная районная больница";ГУЗ "Данковская ЦРБ";;2;Медицинская организация;4803002620;480301001;1024800550708;48;Липецкая область;1;2300229;Органы исполнительной власти субъектов Российской Федерации, осуществляющие функции в области здравоохранения;;;;16.10.2016;09.05.2021;II уровень;1;Больница (в том числе детская);;;;;53.243799;39.142804;411;348468fe-2bcb-4202-bb04-060f62dff13d;699aa614-6dfc-4e70-a793-7fe37639cc57;cad63d9c-5bee-417f-93a9-ea3edd6adb47;48;Липецкая область;42;false;Данков;г;Карла Маркса;ул;1
6788774;1.2.643.5.1.13.13.12.2.48.4528;1.2.643.5.1.13.3.25.48.52;Государственное учреждение здравоохранения "Областная детская больница";ГУЗ "ОДБ";;2;Медицинская организация;4825004194;482501001;1024840851617;48;Липецкая область;1;2300229;Органы исполнительной власти субъектов Российской Федерации, осуществляющие функции в области здравоохранения;;;;16.10.2016;15.04.2021;III уровень;1;Больница (в том числе детская);;;398055;;52.604322;39.513860;403;f1ed2bb3-ed0b-4547-9cdf-2d08cda909df;06b9358c-a608-43ce-bd10-2e94dc6210cd;;48;Липецкая область;42;false;Липецк;г;Московская;ул;6 "а"
6788926;1.2.643.5.1.13.13.12.2.48.4529;1.2.643.5.1.13.3.25.48.53;Государственное учреждение здравоохранения "Долгоруковская районная больница";ГУЗ "Долгоруковская РБ";;2;Медицинская организация;4806000660;480601001;1024800717281;48;Липецкая область;1;2300229;Органы исполнительной власти субъектов Российской Федерации, осуществляющие функции в области здравоохранения;;;;16.10.2016;21.03.2021;I уровень;1;Больница (в том числе детская);;;399510;;52.327091;38.350382;585;d24ded40-0bcc-4d23-904d-83537acf5394;675d9f77-1d60-4b69-aab0-d4075fc6d527;3e9d7bd8-ad6a-4460-b3a0-aae7fd032224;48;Липецкая область;42;false;Долгоруково;с;Тимирязева;ул;24
6789286;1.2.643.5.1.13.13.12.2.48.4496;1.2.643.5.1.13.3.25.48.18;Государственное учреждение здравоохранения "Тербунская центральная районная больница";ГУЗ "Тербунская ЦРБ";;2;Медицинская организация;4815001324;481501001;1024800717908;48;Липецкая область;1;2300229;Органы исполнительной власти субъектов Российской Федерации, осуществляющие функции в области здравоохранения;;;;16.10.2016;09.05.2021;II уровень;1;Больница (в том числе детская);;;399540;;52.137034;38.274079;407;2f4eaa61-e5b3-4c3c-82a6-80d853906808;0d215f69-cdec-44be-bcc5-2252059569bf;07335e4d-4ed1-40e7-8828-29b9ec39b87b;48;Липецкая область;42;false;Тербуны;с;Юбилейная;ул;1
6789562;1.2.643.5.1.13.13.12.2.48.4550;1.2.643.5.1.13.3.25.48.76;Государственное учреждение здравоохранения "Задонская центральная районная больница";ГУЗ "Задонская ЦРБ";;2;Медицинская организация;4808002630;480801001;1024800630612;48;Липецкая область;1;2300229;Органы исполнительной власти субъектов Российской Федерации, осуществляющие функции в области здравоохранения;;;;16.10.2016;18.05.2021;II уровень;1;Больница (в том числе детская);;;399200;;52.376373;38.934853;429;f40be780-f26b-4ccc-bdc1-8012309a5999;450d3a72-aaca-414b-9f38-72b0430bacb1;2e500523-4bab-409c-8553-7827e70b68df;48;Липецкая область;42;false;Задонск;г;Запрудная;ул;1
6789990;1.2.643.5.1.13.13.12.2.48.4513;1.2.643.5.1.13.3.25.48.35;Государственное учреждение здравоохранения "Липецкий городской родильный дом";ГУЗ "Липецкий городской родильный дом";;2;Медицинская организация;4824006657;482401001;1024840845303;48;Липецкая область;1;2300229;Органы исполнительной власти субъектов Российской Федерации, осуществляющие функции в области здравоохранения;;;;16.10.2016;05.03.2021;II уровень;17;Родильный дом;;;398046;;52.592253;39.550343;408;f1ed2bb3-ed0b-4547-9cdf-2d08cda909df;ca04dd4f-0a00-4caa-a3ff-093b67789bbf;2c061a5d-16ac-4e7a-a10f-f3118efb98a1;48;Липецкая область;42;false;Липецк;г;Студенческий;городок;5
6790548;1.2.643.5.1.13.13.12.2.48.4521;1.2.643.5.1.13.3.25.48.44;Государственное учреждение здравоохранения "Липецкая городская поликлиника № 1";ГУЗ "Липецкая горполиклиника № 1";;2;Медицинская организация;4826011130;482601001;1024840844490;48;Липецкая область;1;2300229;Органы исполнительной власти субъектов Российской Федерации, осуществляющие функции в области здравоохранения;;;;16.10.2016;18.05.2021;I уровень;34;Поликлиника;;;398001;;52.604511;39.586653;465;f1ed2bb3-ed0b-4547-9cdf-2d08cda909df;4cfe57e9-cb41-4ab9-ba0b-68cfd7c90915;70113435-0e73-474c-af18-cd1a9d7b4ce5;48;Липецкая область;42;false;Липецк;г;Советская;ул;26
6790616;1.2.643.5.1.13.13.12.2.48.4485;1.2.643.5.1.13.3.25.48.7;Государственное учреждение здравоохранения "Липецкая районная больница";ГУЗ "Липецкая РБ";;2;Медицинская организация;4813004947;481301001;1024800690023;48;Липецкая область;1;2300229;Органы исполнительной власти субъектов Российской Федерации, осуществляющие функции в области здравоохранения;;;;16.10.2016;09.05.2021;I уровень;1;Больница (в том числе детская);;;398510;;52.460517;39.364535;571;f46eddf5-15c8-4b33-8755-8a62e8e85d65;b90d6660-07a8-42ec-a87f-8d2e5c93712d;3aa741e9-9a48-4bee-9bb9-3afb2968f3c5;48;Липецкая область;42;false;Боринское;с;Больничная;ул;7
6961741;1.2.643.5.1.13.13.12.2.48.10203;;Государственное казенное учреждение особого типа «Медицинский информационно-аналитический центр»;ГКУОТ «МИАЦ»;;2;Медицинская организация;4825033501;482601001;1024800835113;48;Липецкая область;1;2300229;Органы исполнительной власти субъектов Российской Федерации, осуществляющие функции в области здравоохранения;;;;03.10.2017;12.03.2021;I уровень;93;Центр (Медицинские организации особого типа);97;медицинский информационно-аналитический;398035;;52.601995;39.536392;408;f1ed2bb3-ed0b-4547-9cdf-2d08cda909df;56314c78-26de-40dc-990f-f26040cbda96;8c842252-0856-485f-9d4d-78fb7d9baf77;48;Липецкая область;42;false;Липецк;г;Вермишева;ул;17
6962005;1.2.643.5.1.13.13.12.2.48.10276;;ОБЛАСТНОЕ КАЗЕННОЕ УЧРЕЖДЕНИЕ "МЕДИЦИНСКИЙ ЦЕНТР МОБИЛИЗАЦИОННЫХ РЕЗЕРВОВ "РЕЗЕРВ";ОКУ "МЦМР "РЕЗЕРВ";;2;Медицинская организация;4826010874;482401001;1024840833775;48;Липецкая область;1;2300229;Органы исполнительной власти субъектов Российской Федерации, осуществляющие функции в области здравоохранения;;;;14.12.2017;19.05.2021;I уровень;93;Центр (Медицинские организации особого типа);96;медицинский мобилизационных резервов "Резерв";398036;48:20:0044007;52.588746;39.522522;407;f1ed2bb3-ed0b-4547-9cdf-2d08cda909df;fd0a8780-ae97-43a7-9fe5-47cbd13900d9;df5c49dd-c8a1-47b4-9b7b-e7fc077a4c80;48;Липецкая область;42;false;Липецк;г;А.Г. Стаханова;ул;30
6964220;1.2.643.5.1.13.13.12.2.48.11267;;Государственное учреждение здравоохранения «Воловская районная больница»;ГУЗ «Воловская РБ»;;2;Медицинская организация;4801015214;480101001;1194827008254;48;Липецкая область;1;2300229;Органы исполнительной власти субъектов Российской Федерации, осуществляющие функции в области здравоохранения;;;;10.07.2019;10.05.2021;I уровень;1;Больница (в том числе детская);;;399580;;52.027468;37.887920;591;87ae1caa-7aa4-42e5-ae46-c25822bd3dc7;7c26cfd0-949c-4732-8fb4-c45d0bdea103;1024a159-11c5-4440-8dbd-6ffd5b2dacde;48;Липецкая область;42;false;Волово;с;Советская;ул;100
